[{"OBJECT_NAME":"ONEWEB-0364","OBJECT_ID":"2021-090M","EPOCH":"2026-03-09T15:47:38.419584","MEAN_MOTION":13.20770517,"ECCENTRICITY":0.00015086,"INCLINATION":87.9158,"RA_OF_ASC_NODE":294.3265,"ARG_OF_PERICENTER":82.8266,"MEAN_ANOMALY":277.3039,"EPHEMERIS_TYPE":0,"CLASSIFICATION_TYPE":"U","NORAD_CAT_ID":49290,"ELEMENT_SET_NO":999,"REV_AT_EPOCH":21830,"BSTAR":-0.00029472957,"MEAN_MOTION_DOT":-1.07e-6,"MEAN_MOTION_DDOT":0},{"OBJECT_NAME":"OBJECT D","OBJECT_ID":"2021-014D","EPOCH":"2026-03-09T21:49:22.484928","MEAN_MOTION":13.4459833,"ECCENTRICITY":0.01640963,"INCLINATION":63.4038,"RA_OF_ASC_NODE":101.0804,"ARG_OF_PERICENTER":1.3716,"MEAN_ANOMALY":358.7727,"EPHEMERIS_TYPE":0,"CLASSIFICATION_TYPE":"U","NORAD_CAT_ID":47694,"ELEMENT_SET_NO":999,"REV_AT_EPOCH":24733,"BSTAR":0.00024937269,"MEAN_MOTION_DOT":6.8e-7,"MEAN_MOTION_DDOT":0}]
